start=new Date('2023-03-26T00:00:00.000Z').valueOf();
sats=[{"PERIAPSIS":"546.140","FILE":"3871104","RCS_SIZE":"LARGE","CLASSIFICATION_TYPE":"U","MEAN_MOTION":"15.06384943","CENTER_NAME":"EARTH","SITE":"AFETR","REV_AT_EPOCH":"11815","MEAN_ELEMENT_THEORY":"SGP4","TIME_SYSTEM":"UTC","BSTAR":"0.00549090000000","EPHEMERIS_TYPE":"0","MEAN_ANOMALY":"274.4155","OBJECT_NAME":"STARLINK-2003","SEMIMAJOR_AXIS":"6925.395","NORAD_CAT_ID":"47598","COUNTRY_CODE":"US","ELEMENT_SET_NO":"999","OBJECT_ID":"2021-009BC","DECAY_DATE":null,"ARG_OF_PERICENTER":"85.7019","EPOCH":"2023-03-25T15:26:12.441984","MEAN_MOTION_DDOT":"0.0000000000000","LAUNCH_DATE":"2021-02-04","TLE_LINE2":"2 47598  53.0519 180.1413 0001617  85.7019 274.4155 15.06384943118158","GP_ID":"228870273","RA_OF_ASC_NODE":"180.1413","INCLINATION":"53.0519","TLE_LINE1":"1 47598U 21009BC  23084.64319956  .00082433  00000-0  54909-2 0  9994","REF_FRAME":"TEME","ECCENTRICITY":"0.00016170","PERIOD":"95.593","APOAPSIS":"548.380","OBJECT_TYPE":"PAYLOAD","MEAN_MOTION_DOT":"0.00082433"},{"REF_FRAME":"TEME","TLE_LINE1":"1 47599U 21009BD  23084.50041666  .00040290  00000-0  27192-2 0  9999","RA_OF_ASC_NODE":"170.7756","INCLINATION":"53.0535","GP_ID":"228871024","MEAN_MOTION_DOT":"0.00040290","OBJECT_TYPE":"PAYLOAD","APOAPSIS":"548.825","PERIOD":"95.602","ECCENTRICITY":"0.00016670","EPOCH":"2023-03-25T12:00:35.999424","ARG_OF_PERICENTER":"80.1923","DECAY_DATE":null,"OBJECT_ID":"2021-009BD","ELEMENT_SET_NO":"999","TLE_LINE2":"2 47599  53.0535 170.7756 0001667  80.1923 279.9255 15.06250924118264","LAUNCH_DATE":"2021-02-04","MEAN_MOTION_DDOT":"0.0000000000000","OBJECT_NAME":"STARLINK-2004","MEAN_ANOMALY":"279.9255","EPHEMERIS_TYPE":"0","COUNTRY_CODE":"US","NORAD_CAT_ID":"47599","SEMIMAJOR_AXIS":"6925.805","CENTER_NAME":"EARTH","MEAN_MOTION":"15.06250924","CLASSIFICATION_TYPE":"U","RCS_SIZE":"LARGE","FILE":"3871104","PERIAPSIS":"546.516","BSTAR":"0.00271920000000","MEAN_ELEMENT_THEORY":"SGP4","TIME_SYSTEM":"UTC","REV_AT_EPOCH":"11826","SITE":"AFETR"},{"MEAN_ANOMALY":"251.3948","OBJECT_NAME":"STARLINK-2005","EPHEMERIS_TYPE":"0","COUNTRY_CODE":"US","SEMIMAJOR_AXIS":"6925.709","NORAD_CAT_ID":"47600","CENTER_NAME":"EARTH","MEAN_MOTION":"15.06282463","CLASSIFICATION_TYPE":"U","PERIAPSIS":"546.597","FILE":"3871104","RCS_SIZE":"LARGE","BSTAR":"0.00193420000000","MEAN_ELEMENT_THEORY":"SGP4","TIME_SYSTEM":"UTC","REV_AT_EPOCH":"11833","SITE":"AFETR","REF_FRAME":"TEME","INCLINATION":"53.0547","RA_OF_ASC_NODE":"168.8472","TLE_LINE1":"1 47600U 21009BE  23084.92431396  .00028554  00000-0  19342-2 0  9998","GP_ID":"228869772","MEAN_MOTION_DOT":"0.00028554","OBJECT_TYPE":"PAYLOAD","APOAPSIS":"548.550","PERIOD":"95.600","ECCENTRICITY":"0.00014100","ARG_OF_PERICENTER":"108.7194","EPOCH":"2023-03-25T22:11:00.726144","DECAY_DATE":null,"OBJECT_ID":"2021-009BE","ELEMENT_SET_NO":"999","TLE_LINE2":"2 47600  53.0547 168.8472 0001410 108.7194 251.3948 15.06282463118330","LAUNCH_DATE":"2021-02-04","MEAN_MOTION_DDOT":"0.0000000000000"},{"COUNTRY_CODE":"US","NORAD_CAT_ID":"47601","SEMIMAJOR_AXIS":"6925.542","MEAN_ANOMALY":"222.4850","OBJECT_NAME":"STARLINK-2006","EPHEMERIS_TYPE":"0","BSTAR":"0.00293460000000","TIME_SYSTEM":"UTC","MEAN_ELEMENT_THEORY":"SGP4","REV_AT_EPOCH":"11828","SITE":"AFETR","CENTER_NAME":"EARTH","CLASSIFICATION_TYPE":"U","MEAN_MOTION":"15.06336813","PERIAPSIS":"546.388","RCS_SIZE":"LARGE","FILE":"3871104","MEAN_MOTION_DOT":"0.00043626","OBJECT_TYPE":"PAYLOAD","APOAPSIS":"548.427","ECCENTRICITY":"0.00014720","PERIOD":"95.596","REF_FRAME":"TEME","RA_OF_ASC_NODE":"170.1630","INCLINATION":"53.0538","TLE_LINE1":"1 47601U 21009BF  23084.63678284  .00043626  00000-0  29346-2 0  9998","GP_ID":"228870022","TLE_LINE2":"2 47601  53.0538 170.1630 0001472 137.6253 222.4850 15.06336813118282","LAUNCH_DATE":"2021-02-04","MEAN_MOTION_DDOT":"0.0000000000000","EPOCH":"2023-03-25T15:16:58.037376","ARG_OF_PERICENTER":"137.6253","DECAY_DATE":null,"OBJECT_ID":"2021-009BF","ELEMENT_SET_NO":"999"},{"RA_OF_ASC_NODE":"180.6659","INCLINATION":"53.0519","TLE_LINE1":"1 47602U 21009BG  23084.52529173  .00046947  00000-0  31602-2 0  9996","GP_ID":"228839225","REF_FRAME":"TEME","APOAPSIS":"548.391","PERIOD":"95.600","ECCENTRICITY":"0.00011540","MEAN_MOTION_DOT":"0.00046947","OBJECT_TYPE":"PAYLOAD","OBJECT_ID":"2021-009BG","ELEMENT_SET_NO":"999","ARG_OF_PERICENTER":"74.7002","EPOCH":"2023-03-25T12:36:25.205472","DECAY_DATE":null,"MEAN_MOTION_DDOT":"0.0000000000000","TLE_LINE2":"2 47602  53.0519 180.6659 0001154  74.7002 285.4115 15.06276647118729","LAUNCH_DATE":"2021-02-04","MEAN_ANOMALY":"285.4115","OBJECT_NAME":"STARLINK-2007","EPHEMERIS_TYPE":"0","NORAD_CAT_ID":"47602","SEMIMAJOR_AXIS":"6925.727","COUNTRY_CODE":"US","CLASSIFICATION_TYPE":"U","MEAN_MOTION":"15.06276647","PERIAPSIS":"546.792","RCS_SIZE":"LARGE","FILE":"3870678","CENTER_NAME":"EARTH","SITE":"AFETR","REV_AT_EPOCH":"11872","BSTAR":"0.00316020000000","TIME_SYSTEM":"UTC","MEAN_ELEMENT_THEORY":"SGP4"},{"BSTAR":"0.00368100000000","TIME_SYSTEM":"UTC","MEAN_ELEMENT_THEORY":"SGP4","SITE":"AFETR","REV_AT_EPOCH":"11772","CENTER_NAME":"EARTH","CLASSIFICATION_TYPE":"U","MEAN_MOTION":"15.06324910","FILE":"3871104","RCS_SIZE":"LARGE","PERIAPSIS":"546.415","COUNTRY_CODE":"US","SEMIMAJOR_AXIS":"6925.579","NORAD_CAT_ID":"47603","OBJECT_NAME":"STARLINK-2008","MEAN_ANOMALY":"295.4902","EPHEMERIS_TYPE":"0","TLE_LINE2":"2 47603  53.0545 210.0179 0001485  64.6240 295.4902 15.06324910117724","LAUNCH_DATE":"2021-02-04","MEAN_MOTION_DDOT":"0.0000000000000","EPOCH":"2023-03-25T16:04:42.751200","ARG_OF_PERICENTER":"64.6240","DECAY_DATE":null,"OBJECT_ID":"2021-009BH","ELEMENT_SET_NO":"999","OBJECT_TYPE":"PAYLOAD","MEAN_MOTION_DOT":"0.00054863","APOAPSIS":"548.472","ECCENTRICITY":"0.00014850","PERIOD":"95.597","REF_FRAME":"TEME","TLE_LINE1":"1 47603U 21009BH  23084.66993925  .00054863  00000-0  36810-2 0  9994","INCLINATION":"53.0545","RA_OF_ASC_NODE":"210.0179","GP_ID":"228870524"},{"CLASSIFICATION_TYPE":"U","MEAN_MOTION":"15.06260914","PERIAPSIS":"546.816","RCS_SIZE":"LARGE","FILE":"3871104","CENTER_NAME":"EARTH","REV_AT_EPOCH":"11816","SITE":"AFETR","BSTAR":"0.00269980000000","MEAN_ELEMENT_THEORY":"SGP4","TIME_SYSTEM":"UTC","MEAN_ANOMALY":"282.0659","OBJECT_NAME":"STARLINK-2021","EPHEMERIS_TYPE":"0","NORAD_CAT_ID":"47604","SEMIMAJOR_AXIS":"6925.775","COUNTRY_CODE":"US","OBJECT_ID":"2021-009BJ","ELEMENT_SET_NO":"999","ARG_OF_PERICENTER":"78.0463","EPOCH":"2023-03-25T17:33:40.855104","DECAY_DATE":null,"MEAN_MOTION_DDOT":"0.0000000000000","TLE_LINE2":"2 47604  53.0527 179.7384 0001189  78.0463 282.0659 15.06260914118164","LAUNCH_DATE":"2021-02-04","INCLINATION":"53.0527","RA_OF_ASC_NODE":"179.7384","TLE_LINE1":"1 47604U 21009BJ  23084.73172286  .00040010  00000-0  26998-2 0  9997","GP_ID":"228869272","REF_FRAME":"TEME","APOAPSIS":"548.463","ECCENTRICITY":"0.00011890","PERIOD":"95.601","OBJECT_TYPE":"PAYLOAD","MEAN_MOTION_DOT":"0.00040010"},{"LAUNCH_DATE":"2021-02-04","TLE_LINE2":"2 47606  53.0535 179.7225 0001400  81.7384 278.3763 15.06260566118165","MEAN_MOTION_DDOT":"0.0000000000000","DECAY_DATE":null,"EPOCH":"2023-03-25T17:38:59.660736","ARG_OF_PERICENTER":"81.7384","ELEMENT_SET_NO":"999","OBJECT_ID":"2021-009BL","MEAN_MOTION_DOT":"0.00046862","OBJECT_TYPE":"PAYLOAD","ECCENTRICITY":"0.00014000","PERIOD":"95.601","APOAPSIS":"548.611","REF_FRAME":"TEME","GP_ID":"228869522","TLE_LINE1":"1 47606U 21009BL  23084.73541274  .00046862  00000-0  31559-2 0  9996","INCLINATION":"53.0535","RA_OF_ASC_NODE":"179.7225","MEAN_ELEMENT_THEORY":"SGP4","TIME_SYSTEM":"UTC","BSTAR":"0.00315590000000","REV_AT_EPOCH":"11816","SITE":"AFETR","CENTER_NAME":"EARTH","FILE":"3871104","RCS_SIZE":"LARGE","PERIAPSIS":"546.671","MEAN_MOTION":"15.06260566","CLASSIFICATION_TYPE":"U","COUNTRY_CODE":"US","SEMIMAJOR_AXIS":"6925.776","NORAD_CAT_ID":"47606","EPHEMERIS_TYPE":"0","OBJECT_NAME":"STARLINK-2024","MEAN_ANOMALY":"278.3763"},{"MEAN_MOTION_DOT":"0.00043521","OBJECT_TYPE":"PAYLOAD","APOAPSIS":"546.881","ECCENTRICITY":"0.00011820","PERIOD":"95.568","REF_FRAME":"TEME","RA_OF_ASC_NODE":"180.4310","INCLINATION":"53.0540","TLE_LINE1":"1 47607U 21009BM  23084.58006946  .00043521  00000-0  28932-2 0  9992","GP_ID":"228870274","TLE_LINE2":"2 47607  53.0540 180.4310 0001182  64.5520 295.5591 15.06775659118135","LAUNCH_DATE":"2021-02-04","MEAN_MOTION_DDOT":"0.0000000000000","EPOCH":"2023-03-25T13:55:18.001344","ARG_OF_PERICENTER":"64.5520","DECAY_DATE":null,"OBJECT_ID":"2021-009BM","ELEMENT_SET_NO":"999","COUNTRY_CODE":"US","SEMIMAJOR_AXIS":"6924.197","NORAD_CAT_ID":"47607","MEAN_ANOMALY":"295.5591","OBJECT_NAME":"STARLINK-2025","EPHEMERIS_TYPE":"0","BSTAR":"0.00289320000000","MEAN_ELEMENT_THEORY":"SGP4","TIME_SYSTEM":"UTC","SITE":"AFETR","REV_AT_EPOCH":"11813","CENTER_NAME":"EARTH","MEAN_MOTION":"15.06775659","CLASSIFICATION_TYPE":"U","PERIAPSIS":"545.244","FILE":"3871104","RCS_SIZE":"LARGE"},{"DECAY_DATE":null,"ARG_OF_PERICENTER":"93.2702","EPOCH":"2023-03-25T17:30:55.860480","ELEMENT_SET_NO":"999","OBJECT_ID":"2021-012A","LAUNCH_DATE":"2021-02-16","TLE_LINE2":"2 47620  53.0534 239.7465 0001115  93.2702 266.8414 15.06321917117205","MEAN_MOTION_DDOT":"0.0000000000000","REF_FRAME":"TEME","GP_ID":"228869273","INCLINATION":"53.0534","RA_OF_ASC_NODE":"239.7465","TLE_LINE1":"1 47620U 21012A   23084.72981320  .00007871  00000-0  54784-3 0  9998","OBJECT_TYPE":"PAYLOAD","MEAN_MOTION_DOT":"0.00007871","PERIOD":"95.597","ECCENTRICITY":"0.00011150","APOAPSIS":"548.225","CENTER_NAME":"EARTH","PERIAPSIS":"546.681","RCS_SIZE":"LARGE","FILE":"3871104","CLASSIFICATION_TYPE":"U","MEAN_MOTION":"15.06321917","MEAN_ELEMENT_THEORY":"SGP4","TIME_SYSTEM":"UTC","BSTAR":"0.00054784000000","REV_AT_EPOCH":"11720","SITE":"AFETR","EPHEMERIS_TYPE":"0","MEAN_ANOMALY":"266.8414","OBJECT_NAME":"STARLINK-1528","COUNTRY_CODE":"US","NORAD_CAT_ID":"47620","SEMIMAJOR_AXIS":"6925.588"}];
